{
  "type": "FeatureCollection",
  "name": "India Maritime Boundaries & Environmental Baselines",
  "crs": {
    "type": "name",
    "properties": {
      "name": "urn:ogc:def:crs:OGC:1.3:CRS84"
    }
  },
  "features": [
    {
      "type": "Feature",
      "id": "BOUNDARY-12NM-TERRITORIAL-WEST",
      "properties": {
        "boundary_id": "BOUNDARY-12NM-TERRITORIAL-WEST",
        "name": "India 12nm Territorial Waters (West Coast / Arabian Sea)",
        "type": "TERRITORIAL_WATERS",
        "jurisdiction": "State & Union Sovereign Waters (12 Nautical Miles)",
        "legislation": "Territorial Waters, Continental Shelf, EEZ and other Maritime Zones Act, 1976",
        "authority": "Ministry of External Affairs / Indian Navy / Indian Coast Guard",
        "color": "#3b82f6",
        "stroke_width": 2
      },
      "geometry": {
        "type": "LineString",
        "coordinates": [
          [68.45, 23.35],
          [68.20, 22.80],
          [68.65, 22.30],
          [69.20, 21.80],
          [70.00, 20.90],
          [71.20, 20.40],
          [72.50, 20.20],
          [72.52, 19.80],
          [72.58, 19.30],
          [72.62, 18.90],
          [72.68, 18.40],
          [72.82, 17.80],
          [72.95, 17.20],
          [73.08, 16.50],
          [73.22, 16.00],
          [73.40, 15.40],
          [73.55, 15.00],
          [73.95, 14.30],
          [74.35, 13.50],
          [74.80, 12.80],
          [75.40, 11.80],
          [75.85, 10.80],
          [76.10, 9.80],
          [76.60, 8.80],
          [77.40, 8.00]
        ]
      }
    },
    {
      "type": "Feature",
      "id": "BOUNDARY-12NM-TERRITORIAL-EAST",
      "properties": {
        "boundary_id": "BOUNDARY-12NM-TERRITORIAL-EAST",
        "name": "India 12nm Territorial Waters (East Coast / Bay of Bengal)",
        "type": "TERRITORIAL_WATERS",
        "jurisdiction": "State & Union Sovereign Waters (12 Nautical Miles)",
        "legislation": "Territorial Waters, Continental Shelf, EEZ and other Maritime Zones Act, 1976",
        "authority": "Ministry of External Affairs / Indian Navy / Indian Coast Guard",
        "color": "#3b82f6",
        "stroke_width": 2
      },
      "geometry": {
        "type": "LineString",
        "coordinates": [
          [77.65, 8.05],
          [78.30, 8.60],
          [79.20, 9.15],
          [79.85, 10.30],
          [80.10, 11.50],
          [80.45, 12.80],
          [80.55, 13.50],
          [80.40, 14.80],
          [80.90, 15.80],
          [82.20, 16.50],
          [83.45, 17.50],
          [84.50, 18.50],
          [85.50, 19.50],
          [86.85, 20.00],
          [87.35, 20.80],
          [88.20, 21.40],
          [89.10, 21.65]
        ]
      }
    },
    {
      "type": "Feature",
      "id": "BOUNDARY-12NM-TERRITORIAL-ANDAMAN",
      "properties": {
        "boundary_id": "BOUNDARY-12NM-TERRITORIAL-ANDAMAN",
        "name": "India 12nm Territorial Waters (Andaman & Nicobar Archipelago)",
        "type": "TERRITORIAL_WATERS",
        "jurisdiction": "Sovereign Territorial Waters - A&N Command",
        "legislation": "Maritime Zones Act, 1976",
        "authority": "Andaman & Nicobar Command / Indian Navy / Coast Guard",
        "color": "#3b82f6",
        "stroke_width": 2
      },
      "geometry": {
        "type": "LineString",
        "coordinates": [
          [92.60, 13.70],
          [93.10, 13.40],
          [93.25, 12.30],
          [93.00, 11.40],
          [92.80, 10.50],
          [92.65, 9.30],
          [93.30, 8.30],
          [93.75, 7.30],
          [94.05, 6.70]
        ]
      }
    },
    {
      "type": "Feature",
      "id": "BOUNDARY-12NM-TERRITORIAL-LAKSHADWEEP",
      "properties": {
        "boundary_id": "BOUNDARY-12NM-TERRITORIAL-LAKSHADWEEP",
        "name": "India 12nm Territorial Waters (Lakshadweep Coral Archipelago)",
        "type": "TERRITORIAL_WATERS",
        "jurisdiction": "Sovereign Waters - Lakshadweep Union Territory",
        "legislation": "Maritime Zones Act, 1976",
        "authority": "Indian Navy / Coast Guard Station Kavaratti",
        "color": "#3b82f6",
        "stroke_width": 2
      },
      "geometry": {
        "type": "LineString",
        "coordinates": [
          [72.50, 12.40],
          [72.00, 11.80],
          [71.85, 10.90],
          [72.05, 10.10],
          [72.85, 8.50],
          [73.20, 8.15]
        ]
      }
    },
    {
      "type": "Feature",
      "id": "BOUNDARY-24NM-CONTIGUOUS-WEST",
      "properties": {
        "boundary_id": "BOUNDARY-24NM-CONTIGUOUS-WEST",
        "name": "India 24nm Contiguous Zone (West Coast Sector)",
        "type": "CONTIGUOUS_ZONE",
        "jurisdiction": "Customs, Fiscal, Immigration & Sanitary Enforcement Zone (24 Nautical Miles)",
        "legislation": "Maritime Zones Act, 1976 §5",
        "authority": "Indian Coast Guard & Central Board of Indirect Taxes and Customs",
        "color": "#8b5cf6",
        "stroke_width": 2,
        "stroke_dash": [5, 5]
      },
      "geometry": {
        "type": "LineString",
        "coordinates": [
          [68.10, 23.00],
          [68.80, 22.00],
          [71.00, 20.10],
          [72.30, 20.20],
          [72.32, 19.80],
          [72.38, 19.30],
          [72.42, 18.90],
          [72.48, 18.40],
          [72.62, 17.80],
          [72.75, 17.20],
          [72.88, 16.50],
          [73.02, 16.00],
          [73.20, 15.40],
          [73.35, 15.00],
          [73.70, 14.10],
          [74.15, 13.20],
          [74.60, 12.30],
          [75.10, 11.20],
          [75.50, 10.10],
          [76.00, 9.10],
          [76.90, 7.80]
        ]
      }
    },
    {
      "type": "Feature",
      "id": "BOUNDARY-24NM-CONTIGUOUS-EAST",
      "properties": {
        "boundary_id": "BOUNDARY-24NM-CONTIGUOUS-EAST",
        "name": "India 24nm Contiguous Zone (East Coast Sector)",
        "type": "CONTIGUOUS_ZONE",
        "jurisdiction": "Customs, Fiscal, Immigration & Sanitary Enforcement Zone (24 Nautical Miles)",
        "legislation": "Maritime Zones Act, 1976 §5",
        "authority": "Indian Coast Guard & Central Board of Indirect Taxes and Customs",
        "color": "#8b5cf6",
        "stroke_width": 2,
        "stroke_dash": [5, 5]
      },
      "geometry": {
        "type": "LineString",
        "coordinates": [
          [78.00, 7.90],
          [78.70, 8.40],
          [79.60, 9.00],
          [80.30, 10.20],
          [80.50, 11.50],
          [80.85, 12.70],
          [80.95, 13.50],
          [80.80, 14.70],
          [81.30, 15.70],
          [82.60, 16.40],
          [83.85, 17.30],
          [84.90, 18.30],
          [85.90, 19.30],
          [87.25, 19.80],
          [87.75, 20.60],
          [88.60, 21.20],
          [89.40, 21.40]
        ]
      }
    },
    {
      "type": "Feature",
      "id": "BOUNDARY-200NM-EEZ-WEST",
      "properties": {
        "boundary_id": "BOUNDARY-200NM-EEZ-WEST",
        "name": "India Exclusive Economic Zone (200nm Arabian Sea Sector)",
        "type": "EXCLUSIVE_ECONOMIC_ZONE",
        "jurisdiction": "Sovereign Rights for Exploring, Exploiting, Conserving & Managing Living & Non-Living Resources",
        "legislation": "UNCLOS III / Territorial Waters, Continental Shelf, EEZ Act, 1976",
        "authority": "Republic of India",
        "color": "#0ea5e9",
        "stroke_width": 2
      },
      "geometry": {
        "type": "Polygon",
        "coordinates": [
          [
            [66.50, 23.50],
            [65.50, 21.50],
            [66.80, 20.00],
            [68.50, 18.50],
            [69.50, 17.00],
            [70.50, 15.50],
            [71.20, 14.00],
            [72.00, 12.50],
            [72.80, 10.50],
            [74.00, 8.50],
            [75.50, 6.50],
            [77.40, 6.00],
            [77.40, 8.00],
            [76.60, 8.80],
            [76.10, 9.80],
            [75.85, 10.80],
            [75.40, 11.80],
            [74.80, 12.80],
            [74.35, 13.50],
            [73.95, 14.30],
            [73.55, 15.00],
            [73.40, 15.40],
            [73.22, 16.00],
            [73.08, 16.50],
            [72.95, 17.20],
            [72.82, 17.80],
            [72.68, 18.40],
            [72.62, 18.90],
            [72.58, 19.30],
            [72.52, 19.80],
            [72.50, 20.20],
            [71.20, 20.40],
            [70.00, 20.90],
            [69.20, 21.80],
            [68.65, 22.30],
            [68.20, 22.80],
            [68.45, 23.35],
            [66.50, 23.50]
          ]
        ]
      }
    },
    {
      "type": "Feature",
      "id": "BOUNDARY-200NM-EEZ-EAST",
      "properties": {
        "boundary_id": "BOUNDARY-200NM-EEZ-EAST",
        "name": "India Exclusive Economic Zone (200nm Bay of Bengal Sector)",
        "type": "EXCLUSIVE_ECONOMIC_ZONE",
        "jurisdiction": "Sovereign Rights for Marine Resources & Scientific Research (UNCLOS Delimited)",
        "legislation": "Maritime Zones Act, 1976 / ITLOS Delimitation",
        "authority": "Republic of India",
        "color": "#0ea5e9",
        "stroke_width": 2
      },
      "geometry": {
        "type": "Polygon",
        "coordinates": [
          [
            [77.65, 8.05],
            [78.30, 8.60],
            [79.20, 9.15],
            [79.85, 10.30],
            [80.10, 11.50],
            [80.45, 12.80],
            [80.55, 13.50],
            [80.40, 14.80],
            [80.90, 15.80],
            [82.20, 16.50],
            [83.45, 17.50],
            [84.50, 18.50],
            [85.50, 19.50],
            [86.85, 20.00],
            [87.35, 20.80],
            [88.20, 21.40],
            [89.10, 21.65],
            [89.80, 20.50],
            [89.30, 19.00],
            [88.20, 17.00],
            [87.00, 15.00],
            [85.50, 13.00],
            [84.00, 11.00],
            [82.50, 9.00],
            [80.50, 6.50],
            [77.80, 6.00],
            [77.65, 8.05]
          ]
        ]
      }
    },
    {
      "type": "Feature",
      "id": "BOUNDARY-200NM-EEZ-ANDAMAN",
      "properties": {
        "boundary_id": "BOUNDARY-200NM-EEZ-ANDAMAN",
        "name": "India Exclusive Economic Zone (Andaman & Nicobar Arc Sector)",
        "type": "EXCLUSIVE_ECONOMIC_ZONE",
        "jurisdiction": "Sovereign Maritime Zone - 30% of Indian National EEZ",
        "legislation": "Maritime Zones Act, 1976",
        "authority": "Republic of India / Andaman and Nicobar Administration",
        "color": "#0ea5e9",
        "stroke_width": 2
      },
      "geometry": {
        "type": "Polygon",
        "coordinates": [
          [
            [90.50, 14.50],
            [94.80, 14.50],
            [95.50, 12.00],
            [96.00, 9.00],
            [96.00, 6.00],
            [93.50, 5.50],
            [91.00, 7.50],
            [90.00, 10.50],
            [90.00, 13.00],
            [90.50, 14.50]
          ]
        ]
      }
    },
    {
      "type": "Feature",
      "id": "CONTOUR-GEBCO-50M-WEST",
      "properties": {
        "contour_id": "CONTOUR-GEBCO-50M-WEST",
        "depth_m": 50,
        "name": "50m Bathymetric Contour (West Coast Inner Shelf)",
        "type": "BATHYMETRIC_CONTOUR",
        "dataset": "GEBCO_2024 / GEBCO_2026 Grid",
        "color": "#38bdf8",
        "stroke_width": 1
      },
      "geometry": {
        "type": "LineString",
        "coordinates": [
          [69.00, 22.00],
          [70.50, 20.60],
          [72.48, 20.10],
          [72.45, 19.50],
          [72.55, 18.90],
          [72.70, 18.20],
          [72.85, 17.50],
          [73.00, 16.80],
          [73.18, 16.10],
          [73.40, 15.30],
          [73.80, 14.50],
          [74.20, 13.70],
          [74.65, 12.90],
          [75.15, 11.80],
          [75.60, 10.80],
          [76.00, 9.80],
          [76.80, 8.20]
        ]
      }
    },
    {
      "type": "Feature",
      "id": "CONTOUR-GEBCO-100M-WEST",
      "properties": {
        "contour_id": "CONTOUR-GEBCO-100M-WEST",
        "depth_m": 100,
        "name": "100m Bathymetric Contour (Outer Konkan-Malabar Shelf Edge)",
        "type": "BATHYMETRIC_CONTOUR",
        "dataset": "GEBCO_2024 / GEBCO_2026 Grid",
        "color": "#0284c7",
        "stroke_width": 1.5
      },
      "geometry": {
        "type": "LineString",
        "coordinates": [
          [68.80, 21.80],
          [70.20, 20.30],
          [71.90, 20.10],
          [71.95, 19.50],
          [72.10, 18.80],
          [72.35, 18.00],
          [72.55, 17.20],
          [72.75, 16.50],
          [72.95, 15.80],
          [73.15, 15.20],
          [73.55, 14.30],
          [73.95, 13.50],
          [74.40, 12.60],
          [74.90, 11.50],
          [75.40, 10.40],
          [75.80, 9.40],
          [76.50, 8.00]
        ]
      }
    },
    {
      "type": "Feature",
      "id": "CONTOUR-GEBCO-200M-WEST",
      "properties": {
        "contour_id": "CONTOUR-GEBCO-200M-WEST",
        "depth_m": 200,
        "name": "200m Bathymetric Shelf Break / Continental Slope (Arabian Sea)",
        "type": "BATHYMETRIC_CONTOUR",
        "dataset": "GEBCO_2024 / GEBCO_2026 Grid",
        "color": "#1e3a8a",
        "stroke_width": 2
      },
      "geometry": {
        "type": "LineString",
        "coordinates": [
          [68.50, 21.50],
          [69.80, 20.00],
          [71.40, 20.00],
          [71.50, 19.30],
          [71.70, 18.60],
          [72.00, 17.80],
          [72.25, 17.00],
          [72.50, 16.30],
          [72.75, 15.60],
          [72.95, 15.00],
          [73.30, 14.00],
          [73.70, 13.20],
          [74.15, 12.30],
          [74.65, 11.20],
          [75.10, 10.10],
          [75.50, 9.00],
          [76.20, 7.80]
        ]
      }
    },
    {
      "type": "Feature",
      "id": "CONTOUR-GEBCO-100M-EAST",
      "properties": {
        "contour_id": "CONTOUR-GEBCO-100M-EAST",
        "depth_m": 100,
        "name": "100m Bathymetric Contour (Narrow Coromandel Shelf Edge & Bengal Fan)",
        "type": "BATHYMETRIC_CONTOUR",
        "dataset": "GEBCO_2024 / GEBCO_2026 Grid",
        "color": "#0284c7",
        "stroke_width": 1.5
      },
      "geometry": {
        "type": "LineString",
        "coordinates": [
          [78.50, 8.20],
          [79.80, 9.40],
          [80.40, 10.80],
          [80.60, 12.00],
          [80.70, 13.50],
          [80.65, 14.80],
          [81.60, 15.90],
          [82.90, 16.70],
          [84.10, 17.60],
          [85.20, 18.60],
          [86.40, 19.60],
          [87.60, 20.40],
          [88.80, 21.10]
        ]
      }
    },
    {
      "type": "Feature",
      "id": "MPA-GULF-OF-MANNAR",
      "properties": {
        "site_id": "MPA-GULF-OF-MANNAR",
        "name": "Gulf of Mannar Marine National Park & Biosphere Reserve",
        "type": "MARINE_PROTECTED_AREA",
        "depth_range_m": "1 - 15m",
        "state": "Tamil Nadu",
        "district": "Ramanathapuram / Thoothukudi",
        "authority": "Tamil Nadu Forest Department / MoEFCC / UNESCO MAB",
        "description": "560 sq km core area encompassing 21 islands, coral reefs, sea grass beds, endangered Dugongs (sea cows), and sea turtles.",
        "color": "#10b981",
        "fill_opacity": 0.35,
        "regulations": "Strict prohibition of mechanized trawling, coral extraction, and unauthorized boat anchoring."
      },
      "geometry": {
        "type": "Polygon",
        "coordinates": [
          [
            [78.75, 9.05],
            [79.25, 9.25],
            [79.45, 9.15],
            [79.30, 8.85],
            [78.85, 8.70],
            [78.65, 8.90],
            [78.75, 9.05]
          ]
        ]
      }
    },
    {
      "type": "Feature",
      "id": "MPA-SUNDARBANS",
      "properties": {
        "site_id": "MPA-SUNDARBANS",
        "name": "Sundarbans National Park & Mangrove Biosphere Reserve",
        "type": "MARINE_PROTECTED_AREA",
        "depth_range_m": "0 - 25m",
        "state": "West Bengal",
        "district": "South 24 Parganas / North 24 Parganas",
        "authority": "West Bengal Forest Directorate / MoEFCC / UNESCO World Heritage",
        "description": "World's largest mangrove delta ecosystem, hosting Royal Bengal tigers, estuarine crocodiles, Irrawaddy and Gangetic dolphins.",
        "color": "#10b981",
        "fill_opacity": 0.35,
        "regulations": "Mechanized vessel transit restricted to notified river channels only. No commercial netting in buffer creeks."
      },
      "geometry": {
        "type": "Polygon",
        "coordinates": [
          [
            [88.40, 22.05],
            [89.10, 22.05],
            [89.25, 21.55],
            [88.80, 21.40],
            [88.30, 21.65],
            [88.40, 22.05]
          ]
        ]
      }
    },
    {
      "type": "Feature",
      "id": "MPA-GAHIRMATHA",
      "properties": {
        "site_id": "MPA-GAHIRMATHA",
        "name": "Gahirmatha Marine Wildlife Sanctuary",
        "type": "MARINE_PROTECTED_AREA",
        "depth_range_m": "2 - 35m",
        "state": "Odisha",
        "district": "Kendrapara",
        "authority": "Odisha Wildlife Wing / MoEFCC",
        "description": "World's largest rookery for mass nesting (Arribada) of hundreds of thousands of Olive Ridley sea turtles (Lepidochelys olivacea).",
        "color": "#10b981",
        "fill_opacity": 0.35,
        "regulations": "Complete fishing ban for mechanized boats within 20 km of the coast from November 1 to May 31 annually."
      },
      "geometry": {
        "type": "Polygon",
        "coordinates": [
          [
            [86.75, 20.85],
            [87.15, 20.85],
            [87.25, 20.45],
            [86.85, 20.45],
            [86.75, 20.85]
          ]
        ]
      }
    },
    {
      "type": "Feature",
      "id": "MPA-GULF-OF-KUTCH",
      "properties": {
        "site_id": "MPA-GULF-OF-KUTCH",
        "name": "Marine National Park & Sanctuary, Gulf of Kutch",
        "type": "MARINE_PROTECTED_AREA",
        "depth_range_m": "0 - 30m",
        "state": "Gujarat",
        "district": "Jamnagar / Devbhumi Dwarka",
        "authority": "Gujarat Forest Department / MoEFCC",
        "description": "First marine national park in India, protecting 42 islands with living coral reefs, sponges, sea anemones, and dugongs.",
        "color": "#10b981",
        "fill_opacity": 0.35,
        "regulations": "Core islands protected under Schedule I of WPA 1972. Industrial discharge and bottom dredging prohibited."
      },
      "geometry": {
        "type": "Polygon",
        "coordinates": [
          [
            [69.05, 22.50],
            [69.75, 22.65],
            [70.15, 22.60],
            [70.05, 22.35],
            [69.45, 22.30],
            [69.05, 22.50]
          ]
        ]
      }
    },
    {
      "type": "Feature",
      "id": "MPA-MALVAN-RESERVE",
      "properties": {
        "site_id": "MPA-MALVAN-RESERVE",
        "name": "Malvan Marine Sanctuary Core Conservation Zone",
        "type": "MARINE_PROTECTED_AREA",
        "depth_range_m": "5 - 35m",
        "state": "Maharashtra",
        "district": "Sindhudurg",
        "authority": "Maharashtra Forest & Wildlife Department / MoEFCC",
        "description": "Sindhudurg Fort reef ecosystem preserving pearl oysters, staghorn corals, sea anemones, and multi-hued reef fish.",
        "color": "#10b981",
        "fill_opacity": 0.35,
        "regulations": "Commercial mechanized bottom trawling and dynamiting strictly illegal within core zone."
      },
      "geometry": {
        "type": "Polygon",
        "coordinates": [
          [
            [73.44, 16.08],
            [73.49, 16.08],
            [73.50, 16.02],
            [73.44, 16.02],
            [73.44, 16.08]
          ]
        ]
      }
    },
    {
      "type": "Feature",
      "id": "MPA-ANGRIA-BANK-CORAL",
      "properties": {
        "site_id": "MPA-ANGRIA-BANK-CORAL",
        "name": "Angria Bank Submerged Coral Atoll & Ecologically Sensitive Zone",
        "type": "ECOLOGICALLY_SENSITIVE_MARINE_AREA",
        "depth_range_m": "20 - 400m",
        "state": "Maharashtra Offshore",
        "district": "Konkan Outer Shelf",
        "authority": "National Hydrographic Office / MoEFCC / Wildlife Conservation Society India",
        "description": "Submerged bank located 105 km offshore Vijaydurg, hosting pristine coral reefs, manta rays, whale sharks, and dolphins.",
        "color": "#10b981",
        "fill_opacity": 0.25,
        "regulations": "Designated Ecologically Sensitive Marine Area. Large bulk carriers prohibited from dumping ballast."
      },
      "geometry": {
        "type": "Polygon",
        "coordinates": [
          [
            [72.00, 16.35],
            [72.05, 16.65],
            [72.18, 16.70],
            [72.25, 16.50],
            [72.22, 16.30],
            [72.10, 16.25],
            [72.00, 16.35]
          ]
        ]
      }
    },
    {
      "type": "Feature",
      "id": "MPA-MAHATMA-GANDHI-ANDAMAN",
      "properties": {
        "site_id": "MPA-MAHATMA-GANDHI-ANDAMAN",
        "name": "Mahatma Gandhi Marine National Park (Wandoor)",
        "type": "MARINE_PROTECTED_AREA",
        "depth_range_m": "2 - 50m",
        "state": "Andaman and Nicobar Islands",
        "district": "South Andaman",
        "authority": "Department of Environment and Forests, A&N Islands",
        "description": "Encompasses 15 islands including Jolly Buoy and Red Skin, with spectacular coral reefs, sea anemones, and nesting green sea turtles.",
        "color": "#10b981",
        "fill_opacity": 0.35,
        "regulations": "Strict no-take marine reserve. Regulated eco-tourism only on designated rotation islands."
      },
      "geometry": {
        "type": "Polygon",
        "coordinates": [
          [
            [92.50, 11.65],
            [92.68, 11.65],
            [92.68, 11.45],
            [92.50, 11.45],
            [92.50, 11.65]
          ]
        ]
      }
    }
  ]
}
